HERMES-3                
1 63835U 25052BR  26068.93751242  .00020316  00000+0  69958-3 0  9995
2 63835  97.3987 324.6131 0007993 112.9583 247.2502 15.30039785 54863
STARLINK-35561          
1 66105U 25236V   26068.49334352  .00027045  00000+0  92199-3 0  9991
2 66105  53.1590 104.8450 0001302  86.9151 273.1999 15.30198348 22850
